{"type": "FeatureCollection", "features": [{"type": "Feature", "id": "volcano-101", "geometry": {"type": "Point", "coordinates": [145.161, 44.133]}, "properties": {"volcano_id": "101", "name": "知床硫黄山", "name_en": "Shiretoko-Iozan", "warning_level_operated": false, "craters": []}}, {"type": "Feature", "id": "volcano-102", "geometry": {"type": "Point", "coordinates": [145.122, 44.076]}, "properties": {"volcano_id": "102", "name": "羅臼岳", "name_en": "Rausudake", "warning_level_operated": false, "craters": []}}, {"type": "Feature", "id": "volcano-103", "geometry": {"type": "Point", "coordinates": [144.561, 43.572]}, "properties": {"volcano_id": "103", "name": "摩周", "name_en": "Mashu", "warning_level_operated": false, "craters": []}}, {"type": "Feature", "id": "volcano-104", "geometry": {"type": "Point", "coordinates": [144.439, 43.61]}, "properties": {"volcano_id": "104", "name": "アトサヌプリ", "name_en": "Atosanupuri", "warning_level_operated": true, "craters": []}}, {"type": "Feature", "id": "volcano-105", "geometry": {"type": "Point", "coordinates": [144.009, 43.386]}, "properties": {"volcano_id": "105", "name": "雌阿寒岳", "name_en": "Meakandake", "warning_level_operated": true, "craters": []}}, {"type": "Feature", "id": "volcano-106", "geometry": {"type": "Point", "coordinates": [143.031, 43.418]}, "properties": {"volcano_id": "106", "name": "丸山", "name_en": "Maruyama", "warning_level_operated": false, "craters": []}}, {"type": "Feature", "id": "volcano-107", "geometry": {"type": "Point", "coordinates": [142.854, 43.664]}, "properties": {"volcano_id": "107", "name": "大雪山", "name_en": "Taisetsuzan", "warning_level_operated": true, "craters": []}}, {"type": "Feature", "id": "volcano-108", "geometry": {"type": "Point", "coordinates": [142.686, 43.418]}, "properties": {"volcano_id": "108", "name": "十勝岳", "name_en": "Tokachidake", "warning_level_operated": true, "craters": []}}, {"type": "Feature", "id": "volcano-109", "geometry": {"type": "Point", "coordinates": [141.377, 42.691]}, "properties": {"volcano_id": "109", "name": "樽前山", "name_en": "Tarumaesan", "warning_level_operated": true, "craters": []}}, {"type": "Feature", "id": "volcano-110", "geometry": {"type": "Point", "coordinates": [141.285, 42.793]}, "properties": {"volcano_id": "110", "name": "恵庭岳", "name_en": "Eniwadake", "warning_level_operated": false, "craters": []}}, {"type": "Feature", "id": "volcano-111", "geometry": {"type": "Point", "coordinates": [141.144, 42.505]}, "properties": {"volcano_id": "111", "name": "倶多楽", "name_en": "Kuttara", "warning_level_operated": true, "craters": []}}, {"type": "Feature", "id": "volcano-112", "geometry": {"type": "Point", "coordinates": [140.839, 42.544]}, "properties": {"volcano_id": "112", "name": "有珠山", "name_en": "Usuzan", "warning_level_operated": true, "craters": []}}, {"type": "Feature", "id": "volcano-113", "geometry": {"type": "Point", "coordinates": [140.677, 42.063]}, "properties": {"volcano_id": "113", "name": "北海道駒ヶ岳", "name_en": "Hokkaido-Komagatake", "warning_level_operated": true, "craters": []}}, {"type": "Feature", "id": "volcano-114", "geometry": {"type": "Point", "coordinates": [141.166, 41.805]}, "properties": {"volcano_id": "114", "name": "恵山", "name_en": "Esan", "warning_level_operated": true, "craters": []}}, {"type": "Feature", "id": "volcano-115", "geometry": {"type": "Point", "coordinates": [139.367, 41.51]}, "properties": {"volcano_id": "115", "name": "渡島大島", "name_en": "Oshima-Oshima", "warning_level_operated": false, "craters": []}}, {"type": "Feature", "id": "volcano-116", "geometry": {"type": "Point", "coordinates": [141.242, 45.179]}, "properties": {"volcano_id": "116", "name": "利尻山", "name_en": "Rishirizan", "warning_level_operated": false, "craters": []}}, {"type": "Feature", "id": "volcano-117", "geometry": {"type": "Point", "coordinates": [140.811, 42.827]}, "properties": {"volcano_id": "117", "name": "羊蹄山", "name_en": "Yoteisan", "warning_level_operated": false, "craters": []}}, {"type": "Feature", "id": "volcano-118", "geometry": {"type": "Point", "coordinates": [140.641, 42.885]}, "properties": {"volcano_id": "118", "name": "ニセコ", "name_en": "Niseko", "warning_level_operated": false, "craters": []}}, {"type": "Feature", "id": "volcano-119", "geometry": {"type": "Point", "coordinates": [145.086, 44.044]}, "properties": {"volcano_id": "119", "name": "天頂山", "name_en": "Tenchozan", "warning_level_operated": false, "craters": []}}, {"type": "Feature", "id": "volcano-120", "geometry": {"type": "Point", "coordinates": [144.165, 43.454]}, "properties": {"volcano_id": "120", "name": "雄阿寒岳", "name_en": "Oakandake", "warning_level_operated": false, "craters": []}}, {"type": "Feature", "id": "volcano-151", "geometry": {"type": "Point", "coordinates": [148.838, 45.389]}, "properties": {"volcano_id": "151", "name": "茂世路岳", "name_en": "Moyorodake", "warning_level_operated": false, "craters": []}}, {"type": "Feature", "id": "volcano-152", "geometry": {"type": "Point", "coordinates": [147.92, 45.338]}, "properties": {"volcano_id": "152", "name": "散布山", "name_en": "Chirippusan", "warning_level_operated": false, "craters": []}}, {"type": "Feature", "id": "volcano-153", "geometry": {"type": "Point", "coordinates": [148.019, 45.1]}, "properties": {"volcano_id": "153", "name": "指臼岳", "name_en": "Sashiusudake", "warning_level_operated": false, "craters": []}}, {"type": "Feature", "id": "volcano-154", "geometry": {"type": "Point", "coordinates": [147.918, 45.028]}, "properties": {"volcano_id": "154", "name": "小田萌山", "name_en": "Odamoisan", "warning_level_operated": false, "craters": []}}, {"type": "Feature", "id": "volcano-155", "geometry": {"type": "Point", "coordinates": [147.871, 45.012]}, "properties": {"volcano_id": "155", "name": "択捉焼山", "name_en": "Etorofu-Yakeyama", "warning_level_operated": false, "craters": []}}, {"type": "Feature", "id": "volcano-156", "geometry": {"type": "Point", "coordinates": [147.131, 44.808]}, "properties": {"volcano_id": "156", "name": "択捉阿登佐岳", "name_en": "Etorofu-Atosanupuri", "warning_level_operated": false, "craters": []}}, {"type": "Feature", "id": "volcano-157", "geometry": {"type": "Point", "coordinates": [146.932, 44.462]}, "properties": {"volcano_id": "157", "name": "ベルタルベ山", "name_en": "Berutarubesan", "warning_level_operated": false, "craters": []}}, {"type": "Feature", "id": "volcano-158", "geometry": {"type": "Point", "coordinates": [146.252, 44.353]}, "properties": {"volcano_id": "158", "name": "爺爺岳", "name_en": "Chachadake", "warning_level_operated": false, "craters": []}}, {"type": "Feature", "id": "volcano-159", "geometry": {"type": "Point", "coordinates": [145.733, 43.979]}, "properties": {"volcano_id": "159", "name": "羅臼山", "name_en": "Raususan", "warning_level_operated": false, "craters": []}}, {"type": "Feature", "id": "volcano-160", "geometry": {"type": "Point", "coordinates": [145.504, 43.844]}, "properties": {"volcano_id": "160", "name": "泊山", "name_en": "Tomariyama", "warning_level_operated": false, "craters": []}}, {"type": "Feature", "id": "volcano-161", "geometry": {"type": "Point", "coordinates": [146.139, 44.454]}, "properties": {"volcano_id": "161", "name": "ルルイ岳", "name_en": "Ruruidake", "warning_level_operated": false, "craters": []}}, {"type": "Feature", "id": "volcano-201", "geometry": {"type": "Point", "coordinates": [141.12, 41.279]}, "properties": {"volcano_id": "201", "name": "恐山", "name_en": "Osorezan", "warning_level_operated": false, "craters": []}}, {"type": "Feature", "id": "volcano-202", "geometry": {"type": "Point", "coordinates": [140.303, 40.656]}, "properties": {"volcano_id": "202", "name": "岩木山", "name_en": "Iwakisan", "warning_level_operated": true, "craters": []}}, {"type": "Feature", "id": "volcano-203", "geometry": {"type": "Point", "coordinates": [140.877, 40.659]}, "properties": {"volcano_id": "203", "name": "八甲田山", "name_en": "Hakkodasan", "warning_level_operated": true, "craters": []}}, {"type": "Feature", "id": "volcano-204", "geometry": {"type": "Point", "coordinates": [140.91, 40.459]}, "properties": {"volcano_id": "204", "name": "十和田", "name_en": "Towada", "warning_level_operated": true, "craters": []}}, {"type": "Feature", "id": "volcano-205", "geometry": {"type": "Point", "coordinates": [140.757, 39.964]}, "properties": {"volcano_id": "205", "name": "秋田焼山", "name_en": "Akita-Yakeyama", "warning_level_operated": true, "craters": []}}, {"type": "Feature", "id": "volcano-206", "geometry": {"type": "Point", "coordinates": [140.854, 39.958]}, "properties": {"volcano_id": "206", "name": "八幡平", "name_en": "Hachimantai", "warning_level_operated": false, "craters": []}}, {"type": "Feature", "id": "volcano-207", "geometry": {"type": "Point", "coordinates": [141.001, 39.853]}, "properties": {"volcano_id": "207", "name": "岩手山", "name_en": "Iwatesan", "warning_level_operated": true, "craters": []}}, {"type": "Feature", "id": "volcano-208", "geometry": {"type": "Point", "coordinates": [140.799, 39.761]}, "properties": {"volcano_id": "208", "name": "秋田駒ヶ岳", "name_en": "Akita-Komagatake", "warning_level_operated": true, "craters": []}}, {"type": "Feature", "id": "volcano-209", "geometry": {"type": "Point", "coordinates": [140.049, 39.099]}, "properties": {"volcano_id": "209", "name": "鳥海山", "name_en": "Chokaisan", "warning_level_operated": true, "craters": []}}, {"type": "Feature", "id": "volcano-210", "geometry": {"type": "Point", "coordinates": [140.788, 38.961]}, "properties": {"volcano_id": "210", "name": "栗駒山", "name_en": "Kurikomayama", "warning_level_operated": true, "craters": []}}, {"type": "Feature", "id": "volcano-211", "geometry": {"type": "Point", "coordinates": [140.734, 38.729]}, "properties": {"volcano_id": "211", "name": "鳴子", "name_en": "Naruko", "warning_level_operated": false, "craters": []}}, {"type": "Feature", "id": "volcano-212", "geometry": {"type": "Point", "coordinates": [140.44, 38.144]}, "properties": {"volcano_id": "212", "name": "蔵王山", "name_en": "Zaozan", "warning_level_operated": true, "craters": []}}, {"type": "Feature", "id": "volcano-213", "geometry": {"type": "Point", "coordinates": [140.244, 37.735]}, "properties": {"volcano_id": "213", "name": "吾妻山", "name_en": "Azumayama", "warning_level_operated": true, "craters": []}}, {"type": "Feature", "id": "volcano-214", "geometry": {"type": "Point", "coordinates": [140.283, 37.633]}, "properties": {"volcano_id": "214", "name": "安達太良山", "name_en": "Adatarayama", "warning_level_operated": true, "craters": []}}, {"type": "Feature", "id": "volcano-215", "geometry": {"type": "Point", "coordinates": [140.072, 37.601]}, "properties": {"volcano_id": "215", "name": "磐梯山", "name_en": "Bandaisan", "warning_level_operated": true, "craters": []}}, {"type": "Feature", "id": "volcano-216", "geometry": {"type": "Point", "coordinates": [139.285, 36.955]}, "properties": {"volcano_id": "216", "name": "燧ヶ岳", "name_en": "Hiuchigatake", "warning_level_operated": false, "craters": []}}, {"type": "Feature", "id": "volcano-217", "geometry": {"type": "Point", "coordinates": [140.162, 38.599]}, "properties": {"volcano_id": "217", "name": "肘折", "name_en": "Hijiori", "warning_level_operated": false, "craters": []}}, {"type": "Feature", "id": "volcano-218", "geometry": {"type": "Point", "coordinates": [139.566, 37.444]}, "properties": {"volcano_id": "218", "name": "沼沢", "name_en": "Numazawa", "warning_level_operated": false, "craters": []}}, {"type": "Feature", "id": "volcano-301", "geometry": {"type": "Point", "coordinates": [139.963, 37.125]}, "properties": {"volcano_id": "301", "name": "那須岳", "name_en": "Nasudake", "warning_level_operated": true, "craters": []}}, {"type": "Feature", "id": "volcano-302", "geometry": {"type": "Point", "coordinates": [139.376, 36.799]}, "properties": {"volcano_id": "302", "name": "日光白根山", "name_en": "Nikko-Shiranesan", "warning_level_operated": true, "craters": []}}, {"type": "Feature", "id": "volcano-303", "geometry": {"type": "Point", "coordinates": [139.193, 36.56]}, "properties": {"volcano_id": "303", "name": "赤城山", "name_en": "Akagisan", "warning_level_operated": false, "craters": []}}, {"type": "Feature", "id": "volcano-304", "geometry": {"type": "Point", "coordinates": [138.851, 36.477]}, "properties": {"volcano_id": "304", "name": "榛名山", "name_en": "Harunasan", "warning_level_operated": false, "craters": []}}, {"type": "Feature", "id": "volcano-305", "geometry": {"type": "Point", "coordinates": [138.528, 36.644]}, "properties": {"volcano_id": "305", "name": "草津白根山", "name_en": "Kusatsu-Shiranesan", "warning_level_operated": false, "craters": ["草津白根山（白根山（湯釜付近））", "草津白根山（本白根山）"]}}, {"type": "Feature", "id": "volcano-306", "geometry": {"type": "Point", "coordinates": [138.523, 36.406]}, "properties": {"volcano_id": "306", "name": "浅間山", "name_en": "Asamayama", "warning_level_operated": true, "craters": []}}, {"type": "Feature", "id": "volcano-307", "geometry": {"type": "Point", "coordinates": [138.036, 36.921]}, "properties": {"volcano_id": "307", "name": "新潟焼山", "name_en": "Niigata-Yakeyama", "warning_level_operated": true, "craters": []}}, {"type": "Feature", "id": "volcano-308", "geometry": {"type": "Point", "coordinates": [138.114, 36.891]}, "properties": {"volcano_id": "308", "name": "妙高山", "name_en": "Myokosan", "warning_level_operated": false, "craters": []}}, {"type": "Feature", "id": "volcano-309", "geometry": {"type": "Point", "coordinates": [137.59, 36.571]}, "properties": {"volcano_id": "309", "name": "弥陀ヶ原", "name_en": "Midagahara", "warning_level_operated": true, "craters": []}}, {"type": "Feature", "id": "volcano-310", "geometry": {"type": "Point", "coordinates": [137.587, 36.227]}, "properties": {"volcano_id": "310", "name": "焼岳", "name_en": "Yakedake", "warning_level_operated": true, "craters": []}}, {"type": "Feature", "id": "volcano-311", "geometry": {"type": "Point", "coordinates": [137.554, 36.106]}, "properties": {"volcano_id": "311", "name": "乗鞍岳", "name_en": "Norikuradake", "warning_level_operated": true, "craters": []}}, {"type": "Feature", "id": "volcano-312", "geometry": {"type": "Point", "coordinates": [137.48, 35.893]}, "properties": {"volcano_id": "312", "name": "御嶽山", "name_en": "Ontakesan", "warning_level_operated": true, "craters": []}}, {"type": "Feature", "id": "volcano-313", "geometry": {"type": "Point", "coordinates": [136.771, 36.155]}, "properties": {"volcano_id": "313", "name": "白山", "name_en": "Hakusan", "warning_level_operated": true, "craters": []}}, {"type": "Feature", "id": "volcano-314", "geometry": {"type": "Point", "coordinates": [138.728, 35.361]}, "properties": {"volcano_id": "314", "name": "富士山", "name_en": "Fujisan", "warning_level_operated": true, "craters": []}}, {"type": "Feature", "id": "volcano-315", "geometry": {"type": "Point", "coordinates": [139.021, 35.233]}, "properties": {"volcano_id": "315", "name": "箱根山", "name_en": "Hakoneyama", "warning_level_operated": true, "craters": []}}, {"type": "Feature", "id": "volcano-316", "geometry": {"type": "Point", "coordinates": [139.095, 34.903]}, "properties": {"volcano_id": "316", "name": "伊豆東部火山群", "name_en": "Izu-Tobu Volcanoes", "warning_level_operated": true, "craters": []}}, {"type": "Feature", "id": "volcano-317", "geometry": {"type": "Point", "coordinates": [139.394, 34.724]}, "properties": {"volcano_id": "317", "name": "伊豆大島", "name_en": "Izu-Oshima", "warning_level_operated": true, "craters": []}}, {"type": "Feature", "id": "volcano-318", "geometry": {"type": "Point", "coordinates": [139.27, 34.397]}, "properties": {"volcano_id": "318", "name": "新島", "name_en": "Niijima", "warning_level_operated": true, "craters": []}}, {"type": "Feature", "id": "volcano-319", "geometry": {"type": "Point", "coordinates": [139.153, 34.219]}, "properties": {"volcano_id": "319", "name": "神津島", "name_en": "Kozushima", "warning_level_operated": true, "craters": []}}, {"type": "Feature", "id": "volcano-320", "geometry": {"type": "Point", "coordinates": [139.526, 34.094]}, "properties": {"volcano_id": "320", "name": "三宅島", "name_en": "Miyakejima", "warning_level_operated": true, "craters": []}}, {"type": "Feature", "id": "volcano-321", "geometry": {"type": "Point", "coordinates": [139.766, 33.137]}, "properties": {"volcano_id": "321", "name": "八丈島", "name_en": "Hachijojima", "warning_level_operated": true, "craters": []}}, {"type": "Feature", "id": "volcano-322", "geometry": {"type": "Point", "coordinates": [139.759, 32.458]}, "properties": {"volcano_id": "322", "name": "青ヶ島", "name_en": "Aogashima", "warning_level_operated": true, "craters": []}}, {"type": "Feature", "id": "volcano-323", "geometry": {"type": "Point", "coordinates": [139.918, 31.888]}, "properties": {"volcano_id": "323", "name": "ベヨネース列岩", "name_en": "Beyonesu Rocks", "warning_level_operated": false, "craters": []}}, {"type": "Feature", "id": "volcano-324", "geometry": {"type": "Point", "coordinates": [140.051, 31.44]}, "properties": {"volcano_id": "324", "name": "須美寿島", "name_en": "Sumisujima", "warning_level_operated": false, "craters": []}}, {"type": "Feature", "id": "volcano-325", "geometry": {"type": "Point", "coordinates": [140.303, 30.484]}, "properties": {"volcano_id": "325", "name": "伊豆鳥島", "name_en": "Izu-Torishima", "warning_level_operated": false, "craters": []}}, {"type": "Feature", "id": "volcano-326", "geometry": {"type": "Point", "coordinates": [140.874, 27.247]}, "properties": {"volcano_id": "326", "name": "西之島", "name_en": "Nishinoshima", "warning_level_operated": false, "craters": []}}, {"type": "Feature", "id": "volcano-327", "geometry": {"type": "Point", "coordinates": [141.102, 26.127]}, "properties": {"volcano_id": "327", "name": "海徳海山", "name_en": "Kaitoku Seamount", "warning_level_operated": false, "craters": []}}, {"type": "Feature", "id": "volcano-328", "geometry": {"type": "Point", "coordinates": [141.238, 25.455]}, "properties": {"volcano_id": "328", "name": "噴火浅根", "name_en": "Funka Asane", "warning_level_operated": false, "craters": []}}, {"type": "Feature", "id": "volcano-329", "geometry": {"type": "Point", "coordinates": [141.289, 24.751]}, "properties": {"volcano_id": "329", "name": "硫黄島", "name_en": "Ioto", "warning_level_operated": false, "craters": []}}, {"type": "Feature", "id": "volcano-330", "geometry": {"type": "Point", "coordinates": [141.417, 24.417]}, "properties": {"volcano_id": "330", "name": "北福徳堆", "name_en": "Kita-Fukutokutai", "warning_level_operated": false, "craters": []}}, {"type": "Feature", "id": "volcano-331", "geometry": {"type": "Point", "coordinates": [141.481, 24.285]}, "properties": {"volcano_id": "331", "name": "福徳岡ノ場", "name_en": "Fukutoku-Oka-no-Ba", "warning_level_operated": false, "craters": []}}, {"type": "Feature", "id": "volcano-333", "geometry": {"type": "Point", "coordinates": [139.777, 36.9]}, "properties": {"volcano_id": "333", "name": "高原山", "name_en": "Takaharayama", "warning_level_operated": false, "craters": []}}, {"type": "Feature", "id": "volcano-334", "geometry": {"type": "Point", "coordinates": [138.32, 36.087]}, "properties": {"volcano_id": "334", "name": "横岳", "name_en": "Yokodake", "warning_level_operated": false, "craters": []}}, {"type": "Feature", "id": "volcano-335", "geometry": {"type": "Point", "coordinates": [137.573, 36.2]}, "properties": {"volcano_id": "335", "name": "アカンダナ山", "name_en": "Akandanayama", "warning_level_operated": false, "craters": []}}, {"type": "Feature", "id": "volcano-336", "geometry": {"type": "Point", "coordinates": [139.279, 34.52]}, "properties": {"volcano_id": "336", "name": "利島", "name_en": "Toshima", "warning_level_operated": false, "craters": []}}, {"type": "Feature", "id": "volcano-337", "geometry": {"type": "Point", "coordinates": [139.602, 33.874]}, "properties": {"volcano_id": "337", "name": "御蔵島", "name_en": "Mikurajima", "warning_level_operated": false, "craters": []}}, {"type": "Feature", "id": "volcano-338", "geometry": {"type": "Point", "coordinates": [140.342, 29.794]}, "properties": {"volcano_id": "338", "name": "孀婦岩", "name_en": "Sofugan", "warning_level_operated": false, "craters": []}}, {"type": "Feature", "id": "volcano-339", "geometry": {"type": "Point", "coordinates": [140.929, 26.667]}, "properties": {"volcano_id": "339", "name": "海形海山", "name_en": "Kaikata Seamount", "warning_level_operated": false, "craters": []}}, {"type": "Feature", "id": "volcano-340", "geometry": {"type": "Point", "coordinates": [141.935, 23.5]}, "properties": {"volcano_id": "340", "name": "南日吉海山", "name_en": "Minami-Hiyoshi Seamount", "warning_level_operated": false, "craters": []}}, {"type": "Feature", "id": "volcano-341", "geometry": {"type": "Point", "coordinates": [142.326, 23.078]}, "properties": {"volcano_id": "341", "name": "日光海山", "name_en": "Nikko Seamount", "warning_level_operated": false, "craters": []}}, {"type": "Feature", "id": "volcano-342", "geometry": {"type": "Point", "coordinates": [139.491, 36.765]}, "properties": {"volcano_id": "342", "name": "男体山", "name_en": "Nantaisan", "warning_level_operated": false, "craters": []}}, {"type": "Feature", "id": "volcano-401", "geometry": {"type": "Point", "coordinates": [132.622, 35.141]}, "properties": {"volcano_id": "401", "name": "三瓶山", "name_en": "Sanbesan", "warning_level_operated": false, "craters": []}}, {"type": "Feature", "id": "volcano-502", "geometry": {"type": "Point", "coordinates": [131.249, 33.086]}, "properties": {"volcano_id": "502", "name": "九重山", "name_en": "Kujusan", "warning_level_operated": true, "craters": []}}, {"type": "Feature", "id": "volcano-503", "geometry": {"type": "Point", "coordinates": [131.104, 32.884]}, "properties": {"volcano_id": "503", "name": "阿蘇山", "name_en": "Asosan", "warning_level_operated": true, "craters": []}}, {"type": "Feature", "id": "volcano-504", "geometry": {"type": "Point", "coordinates": [130.299, 32.761]}, "properties": {"volcano_id": "504", "name": "雲仙岳", "name_en": "Unzendake", "warning_level_operated": true, "craters": []}}, {"type": "Feature", "id": "volcano-505", "geometry": {"type": "Point", "coordinates": [130.862, 31.934]}, "properties": {"volcano_id": "505", "name": "霧島山", "name_en": "Kirishimayama", "warning_level_operated": false, "craters": ["霧島山（御鉢）", "霧島山（新燃岳）", "霧島山（えびの高原（硫黄山）周辺）", "霧島山（大幡池）"]}}, {"type": "Feature", "id": "volcano-506", "geometry": {"type": "Point", "coordinates": [130.657, 31.593]}, "properties": {"volcano_id": "506", "name": "桜島", "name_en": "Sakurajima", "warning_level_operated": true, "craters": []}}, {"type": "Feature", "id": "volcano-507", "geometry": {"type": "Point", "coordinates": [130.528, 31.18]}, "properties": {"volcano_id": "507", "name": "開聞岳", "name_en": "Kaimondake", "warning_level_operated": false, "craters": []}}, {"type": "Feature", "id": "volcano-508", "geometry": {"type": "Point", "coordinates": [130.305, 30.793]}, "properties": {"volcano_id": "508", "name": "薩摩硫黄島", "name_en": "Satsuma-Iojima", "warning_level_operated": true, "craters": []}}, {"type": "Feature", "id": "volcano-509", "geometry": {"type": "Point", "coordinates": [130.217, 30.443]}, "properties": {"volcano_id": "509", "name": "口永良部島", "name_en": "Kuchinoerabujima", "warning_level_operated": true, "craters": []}}, {"type": "Feature", "id": "volcano-510", "geometry": {"type": "Point", "coordinates": [129.857, 29.859]}, "properties": {"volcano_id": "510", "name": "中之島", "name_en": "Nakanoshima", "warning_level_operated": false, "craters": []}}, {"type": "Feature", "id": "volcano-511", "geometry": {"type": "Point", "coordinates": [129.714, 29.638]}, "properties": {"volcano_id": "511", "name": "諏訪之瀬島", "name_en": "Suwanosejima", "warning_level_operated": true, "craters": []}}, {"type": "Feature", "id": "volcano-512", "geometry": {"type": "Point", "coordinates": [131.402, 34.449]}, "properties": {"volcano_id": "512", "name": "阿武火山群", "name_en": "Abu Volcanoes", "warning_level_operated": false, "craters": []}}, {"type": "Feature", "id": "volcano-513", "geometry": {"type": "Point", "coordinates": [131.43, 33.287]}, "properties": {"volcano_id": "513", "name": "鶴見岳・伽藍岳", "name_en": "Tsurumidake and Garandake", "warning_level_operated": true, "craters": []}}, {"type": "Feature", "id": "volcano-514", "geometry": {"type": "Point", "coordinates": [131.39, 33.282]}, "properties": {"volcano_id": "514", "name": "由布岳", "name_en": "Yufudake", "warning_level_operated": false, "craters": []}}, {"type": "Feature", "id": "volcano-515", "geometry": {"type": "Point", "coordinates": [128.849, 32.657]}, "properties": {"volcano_id": "515", "name": "福江火山群", "name_en": "Fukue Volcanoes", "warning_level_operated": false, "craters": []}}, {"type": "Feature", "id": "volcano-516", "geometry": {"type": "Point", "coordinates": [130.592, 31.771]}, "properties": {"volcano_id": "516", "name": "米丸・住吉池", "name_en": "Yonemaru and Sumiyoshiike", "warning_level_operated": false, "craters": []}}, {"type": "Feature", "id": "volcano-517", "geometry": {"type": "Point", "coordinates": [130.798, 31.663]}, "properties": {"volcano_id": "517", "name": "若尊", "name_en": "Wakamiko", "warning_level_operated": false, "craters": []}}, {"type": "Feature", "id": "volcano-518", "geometry": {"type": "Point", "coordinates": [130.567, 31.213]}, "properties": {"volcano_id": "518", "name": "池田・山川", "name_en": "Ikeda and Yamagawa", "warning_level_operated": false, "craters": []}}, {"type": "Feature", "id": "volcano-519", "geometry": {"type": "Point", "coordinates": [129.926, 29.968]}, "properties": {"volcano_id": "519", "name": "口之島", "name_en": "Kuchinoshima", "warning_level_operated": false, "craters": []}}, {"type": "Feature", "id": "volcano-601", "geometry": {"type": "Point", "coordinates": [128.223, 27.881]}, "properties": {"volcano_id": "601", "name": "硫黄鳥島", "name_en": "Io-Torishima", "warning_level_operated": false, "craters": []}}, {"type": "Feature", "id": "volcano-602", "geometry": {"type": "Point", "coordinates": [123.933, 24.567]}, "properties": {"volcano_id": "602", "name": "西表島北北東海底火山", "name_en": "Submarine Volcano NNE of Iriomotejima", "warning_level_operated": false, "craters": []}}], "metadata": {"source": "気象庁", "dataset": "火山一覧(bosai/volcano/const/volcano_list.json)", "source_url": "https://www.jma.go.jp/bosai/volcano/const/volcano_list.json", "license": "気象庁ホームページの利用について(出典明示)", "license_url": "https://www.jma.go.jp/jma/kishou/info/coment.html", "download_date": "2026-09-07", "processing_method": "名簿 120 件から、座標を持たない疑似項目 3 件と親火山の火口細分 6 件を除いて 111 件", "counts": {"entries": 120, "volcanoes": 111, "subdivisions": 6, "pseudo": 3, "jma_published": 111}}}
